NORAD_CAT_ID,OBJECT_NAME,OBJECT_TYPE,EPOCH,MEAN_MOTION,ECCENTRICITY,INCLINATION,RA_OF_ASC_NODE,ARG_OF_PERICENTER,MEAN_ANOMALY,BSTAR,MEAN_MOTION_DOT,MEAN_MOTION_DDOT,TLE_LINE0,TLE_LINE1,TLE_LINE2,SEMIMAJOR_AXIS,PERIOD,APOGEE,PERIGEE,DECAYED
53035.0,STARLINK-4157,PAYLOAD,2024-07-27 05:16:37,15.08828562,0.0001335,53.2151,204.8421,90.9528,269.1617,-3.8613e-05,-9.02e-06,0.0,0 STARLINK-4157,1 53035U 22076BB  24209.21987706 -.00000902  00000-0 -38613-4 0  9998,2 53035  53.2151 204.8421 0001335  90.9528 269.1617 15.08828562114442,6917.915,95.438,540.704,538.857,0.0
53035.0,STARLINK-4157,PAYLOAD,2024-07-27 06:52:00,15.08827477,0.0001323,53.2153,204.5449,90.6638,269.4506,-5.3098e-05,-1.133e-05,0.0,0 STARLINK-4157,1 53035U 22076BB  24209.28611844 -.00001133  00000-0 -53098-4 0  9993,2 53035  53.2153 204.5449 0001323  90.6638 269.4506 15.08827477113990,6917.919,95.438,540.699,538.868,0.0
53035.0,STARLINK-4157,PAYLOAD,2024-07-28 06:42:47,15.08831582,0.0001283,53.2152,200.0849,91.1843,268.9296,3.6898e-05,2.99e-06,0.0,0 STARLINK-4157,1 53035U 22076BB  24210.27972004  .00000299  00000-0  36898-4 0  9991,2 53035  53.2152 200.0849 0001283  91.1843 268.9296 15.08831582114604,6917.906,95.438,540.659,538.884,0.0
53035.0,STARLINK-4157,PAYLOAD,2024-07-29 04:58:11,15.08841042,0.0001228,53.2145,195.9208,79.5601,280.553,0.00017621,2.518e-05,0.0,0 STARLINK-4157,1 53035U 22076BB  24211.20707330  .00002518  00000-0  17621-3 0  9991,2 53035  53.2145 195.9208 0001228  79.5601 280.5530 15.08841042114746,6917.877,95.437,540.592,538.893,0.0
53035.0,STARLINK-4157,PAYLOAD,2024-07-29 06:33:34,15.08842477,0.0001261,53.215,195.6238,85.2195,274.8942,0.00018861,2.715e-05,0.0,0 STARLINK-4157,1 53035U 22076BB  24211.27331230  .00002715  00000-0  18861-3 0  9996,2 53035  53.2150 195.6238 0001261  85.2195 274.8942 15.08842477114297,6917.873,95.437,540.61,538.865,0.0
53035.0,STARLINK-4157,PAYLOAD,2024-07-29 22:27:25,15.08849867,0.0001421,53.2161,192.6551,81.1848,278.9305,0.00015289,2.147e-05,0.0,0 STARLINK-4157,1 53035U 22076BB  24211.93571033  .00002147  00000-0  15289-3 0  9996,2 53035  53.2161 192.6551 0001421  81.1848 278.9305 15.08849867114391,6917.85,95.437,540.698,538.732,0.0
53035.0,STARLINK-4157,PAYLOAD,2024-07-30 06:24:21,15.08848351,0.0001272,53.2158,191.1634,86.4923,273.6215,0.0001235,1.679e-05,0.0,0 STARLINK-4157,1 53035U 22076BB  24212.26691112  .00001679  00000-0  12350-3 0  9999,2 53035  53.2158 191.1634 0001272  86.4923 273.6215 15.08848351114905,6917.855,95.437,540.6,538.84,0.0
53035.0,STARLINK-4157,PAYLOAD,2024-07-30 15:56:39,15.08854248,0.0001296,53.2157,189.3803,88.0117,272.1023,0.00013543,1.869e-05,0.0,0 STARLINK-4157,1 53035U 22076BB  24212.66434469  .00001869  00000-0  13543-3 0  9999,2 53035  53.2157 189.3803 0001296  88.0117 272.1023 15.08854248114509,6917.837,95.437,540.598,538.805,0.0
53035.0,STARLINK-4157,PAYLOAD,2024-07-31 04:39:45,15.08844673,0.0001676,53.2182,187.0017,85.4015,274.7169,-8.2865e-06,-4.2e-06,0.0,0 STARLINK-4157,1 53035U 22076BB  24213.19427477 -.00000420  00000-0 -82865-5 0  9998,2 53035  53.2182 187.0017 0001676  85.4015 274.7169 15.08844673114587,6917.866,95.437,540.891,538.572,0.0
53035.0,STARLINK-4157,PAYLOAD,2024-07-31 15:47:26,15.08847279,0.0001444,53.2161,184.9217,82.4171,277.6985,-1.1904e-05,-4.77e-06,0.0,0 STARLINK-4157,1 53035U 22076BB  24213.65795056 -.00000477  00000-0 -11904-4 0  9997,2 53035  53.2161 184.9217 0001444  82.4171 277.6985 15.08847279114656,6917.858,95.437,540.722,538.724,0.0
53035.0,STARLINK-4157,PAYLOAD,2024-08-01 04:30:31,15.08846072,0.0001419,53.2172,182.5382,112.1061,248.0082,2.5183e-05,1.13e-06,0.0,0 STARLINK-4157,1 53035U 22076BB  24214.18786868  .00000113  00000-0  25183-4 0  9996,2 53035  53.2172 182.5382 0001419 112.1061 248.0082 15.08846072114735,6917.862,95.437,540.708,538.745,0.0
53035.0,STARLINK-4157,PAYLOAD,2024-08-01 21:59:46,15.0883735,0.0001328,53.2158,179.2694,90.1844,269.93,0.00010295,1.351e-05,0.0,0 STARLINK-4157,1 53035U 22076BB  24214.91651151  .00001351  00000-0  10295-3 0  9995,2 53035  53.2158 179.2694 0001328  90.1844 269.9300 15.08837350115309,6917.888,95.438,540.672,538.835,0.0
53035.0,STARLINK-4157,PAYLOAD,2024-08-02 04:21:20,15.08823345,0.0001388,53.2165,178.0785,98.1529,261.9621,9.8959e-06,-1.3e-06,0.0,0 STARLINK-4157,1 53035U 22076BB  24215.18148473 -.00000130  00000-0  98959-5 0  9993,2 53035  53.2165 178.0785 0001388  98.1529 261.9621 15.08823345115340,6917.931,95.439,540.757,538.836,0.0
53035.0,STARLINK-4157,PAYLOAD,2024-08-02 07:32:06,15.08816271,0.0001343,53.2166,177.4844,99.255,260.8594,5.5091e-05,5.88e-06,0.0,0 STARLINK-4157,1 53035U 22076BB  24215.31396876  .00000588  00000-0  55091-4 0  9995,2 53035  53.2166 177.4844 0001343  99.2550 260.8594 15.08816271114905,6917.953,95.439,540.747,538.889,0.0
53035.0,STARLINK-4157,PAYLOAD,2024-08-02 21:50:34,15.08836939,0.0001234,53.2173,174.8098,98.0407,262.0725,8.5014e-05,1.065e-05,0.0,0 STARLINK-4157,1 53035U 22076BB  24215.91011702  .00001065  00000-0  85014-4 0  9992,2 53035  53.2173 174.8098 0001234  98.0407 262.0725 15.08836939115456,6917.89,95.438,540.608,538.901,0.0
53035.0,STARLINK-4157,PAYLOAD,2024-08-03 04:12:05,15.0885164,0.0001332,53.2165,173.6205,97.2854,262.829,0.00017162,2.445e-05,0.0,0 STARLINK-4157,1 53035U 22076BB  24216.17506777  .00002445  00000-0  17162-3 0  9993,2 53035  53.2165 173.6205 0001332  97.2854 262.8290 15.08851640115495,6917.845,95.437,540.631,538.788,0.0
53035.0,STARLINK-4157,PAYLOAD,2024-08-03 13:44:24,15.08863427,0.0001323,53.2158,171.8377,97.3329,262.7813,0.00035406,5.355e-05,0.0,0 STARLINK-4157,1 53035U 22076BB  24216.57250278  .00005355  00000-0  35406-3 0  9993,2 53035  53.2158 171.8377 0001323  97.3329 262.7813 15.08863427115097,6917.809,95.436,540.589,538.759,0.0
53035.0,STARLINK-4157,PAYLOAD,2024-08-03 21:41:21,15.08842011,0.0002038,53.2155,170.3492,83.4366,276.6858,0.0002691,3.997e-05,0.0,0 STARLINK-4157,1 53035U 22076BB  24216.90371731  .00003997  00000-0  26910-3 0  9998,2 53035  53.2155 170.3492 0002038  83.4366 276.6858 15.08842011115603,6917.874,95.437,541.149,538.329,0.0
53035.0,STARLINK-4157,PAYLOAD,2024-08-04 13:35:11,15.08867498,0.0001296,53.2155,167.376,87.0487,273.0653,0.0020764,0.00032938,0.0,0 STARLINK-4157,1 53035U 22076BB  24217.56610996  .00032938  00000-0  20764-2 0  9997,2 53035  53.2155 167.3760 0001296  87.0487 273.0653 15.08867498115246,6917.796,95.436,540.558,538.765,0.0
53035.0,STARLINK-4157,PAYLOAD,2024-08-04 21:32:07,15.08857982,0.0001626,53.2156,165.8905,98.6146,261.503,0.0022678,0.00036007,0.0,0 STARLINK-4157,1 53035U 22076BB  24217.89731339  .00036007  00000-0  22678-2 0  9995,2 53035  53.2156 165.8905 0001626  98.6146 261.5030 15.08857982115291,6917.825,95.436,540.815,538.566,0.0
53035.0,STARLINK-4157,PAYLOAD,2024-08-05 03:53:40,15.08849449,0.0001578,53.2154,164.7005,90.6782,269.4391,0.001788,0.0002829,0.0,0 STARLINK-4157,1 53035U 22076BB  24218.16227327  .00028290  00000-0  17880-2 0  9997,2 53035  53.2154 164.7005 0001578  90.6782 269.4391 15.08849449115793,6917.852,95.437,540.808,538.625,0.0
53035.0,STARLINK-4157,PAYLOAD,2024-08-05 13:25:58,15.08873203,0.0002013,53.2156,162.914,60.885,299.2344,0.0021747,0.00034524,0.0,0 STARLINK-4157,1 53035U 22076BB  24218.55970869  .00034524  00000-0  21747-2 0  9990,2 53035  53.2156 162.9140 0002013  60.8850 299.2344 15.08873203115395,6917.779,95.435,541.036,538.251,0.0
53035.0,STARLINK-4157,PAYLOAD,2024-08-06 05:19:51,15.08803365,0.0001586,53.2145,159.9416,73.9724,286.1442,0.0019016,0.00030075,0.0,0 STARLINK-4157,1 53035U 22076BB  24219.22212940  .00030075  00000-0  19016-2 0  9997,2 53035  53.2145 159.9416 0001586  73.9724 286.1442 15.08803365115952,6917.992,95.44,540.955,538.76,0.0
53035.0,STARLINK-4157,PAYLOAD,2024-08-06 13:16:48,15.08825489,0.0001526,53.2145,158.4552,76.7226,283.3936,0.0019544,0.00030941,0.0,0 STARLINK-4157,1 53035U 22076BB  24219.55333414  .00030941  00000-0  19544-2 0  9991,2 53035  53.2145 158.4552 0001526  76.7226 283.3936 15.08825489115542,6917.925,95.438,540.845,538.734,0.0
53035.0,STARLINK-4157,PAYLOAD,2024-08-07 01:59:52,15.08862824,0.0001508,53.2144,156.0764,77.8794,282.2367,0.0021339,0.00033858,0.0,0 STARLINK-4157,1 53035U 22076BB  24220.08325169  .00033858  00000-0  21339-2 0  9994,2 53035  53.2144 156.0764 0001508  77.8794 282.2367 15.08862824116082,6917.811,95.436,540.719,538.632,0.0
53035.0,STARLINK-4157,PAYLOAD,2024-08-08 05:01:25,15.08875338,0.0001718,53.215,151.0244,77.7443,282.3741,0.0017104,0.00027064,0.0,0 STARLINK-4157,1 53035U 22076BB  24221.20932154  .00027064  00000-0  17104-2 0  9994,2 53035  53.2150 151.0244 0001718  77.7443 282.3741 15.08875338115798,6917.772,95.435,540.826,538.449,0.0
53035.0,STARLINK-4157,PAYLOAD,2024-08-08 22:30:39,15.08854272,0.0002471,53.2153,147.741,129.2609,230.8603,0.0016735,0.00026457,0.0,0 STARLINK-4157,1 53035U 22076BB  24221.93795740  .00026457  00000-0  16735-2 0  9996,2 53035  53.2153 147.7410 0002471 129.2609 230.8603 15.08854272115904,6917.837,95.437,541.411,537.992,0.0
53035.0,STARLINK-4157,PAYLOAD,2024-08-09 04:52:12,15.08850973,0.0001274,53.2148,146.5595,98.4725,261.6411,0.0008678,0.00013554,0.0,0 STARLINK-4157,1 53035U 22076BB  24222.20291798  .00013554  00000-0  86780-3 0  9993,2 53035  53.2148 146.5595 0001274  98.4725 261.6411 15.08850973116404,6917.847,95.437,540.593,538.831,0.0
53035.0,STARLINK-4157,PAYLOAD,2024-08-10 01:32:13,15.08840614,0.0001381,53.2161,142.6866,113.0449,247.0689,0.00017984,2.575e-05,0.0,0 STARLINK-4157,1 53035U 22076BB  24223.06403947  .00002575  00000-0  17984-3 0  9990,2 53035  53.2161 142.6866 0001381 113.0449 247.0689 15.08840614116533,6917.879,95.438,540.699,538.788,0.0
53035.0,STARLINK-4157,PAYLOAD,2024-08-10 22:12:13,15.08839923,0.0001407,53.2161,138.8209,116.8729,243.2407,9.7036e-05,1.257e-05,0.0,0 STARLINK-4157,1 53035U 22076BB  24223.92516023  .00001257  00000-0  97036-4 0  9998,2 53035  53.2161 138.8209 0001407 116.8729 243.2407 15.08839923116203,6917.881,95.438,540.719,538.772,0.0
